{
  "type": "FeatureCollection",
  "features": [
    {
      "type": "Feature",
      "properties": {
        "norad_id": 29268,
        "name": "ARIRANG-2 (KOMPSAT-2)",
        "group": "resource",
        "lat": 24.632933693899542,
        "lon": 7.266896423550555,
        "alt_km": 683.1699939964974,
        "timestamp": "2025-12-21T14:40:47.567237+00:00",
        "meta_object_name": "ARIRANG-2 (KOMPSAT-2)",
        "meta_object_id": "2006-031A",
        "meta_epoch": "2025-12-21T06:33:48.150144",
        "meta_mean_motion": 14.64500287,
        "meta_eccentricity": 0.0013167,
        "meta_inclination": 97.8252,
        "meta_ra_of_asc_node": 183.33,
        "meta_arg_of_pericenter": 279.7804,
        "meta_mean_anomaly": 253.4395,
        "meta_ephemeris_type": 0,
        "meta_classification_type": "U",
        "meta_norad_cat_id": 29268,
        "meta_element_set_no": 999,
        "meta_rev_at_epoch": 3543,
        "meta_bstar": 4.6599747e-05,
        "meta_mean_motion_dot": 2.02e-06,
        "meta_mean_motion_ddot": 0,
        "tle_line1": "1 29268U 06031A   25355.27347396  .00000202  00000+0  46600-4 0  9991",
        "tle_line2": "2 29268  97.8252 183.3300 0013167 279.7804 253.4395 14.64500287 35438"
      },
      "geometry": {
        "type": "Point",
        "coordinates": [
          7.266896423550555,
          24.632933693899542
        ]
      }
    },
    {
      "type": "Feature",
      "properties": {
        "norad_id": 29709,
        "name": "LAPAN-TUBSAT",
        "group": "resource",
        "lat": 44.78298424569587,
        "lon": -22.200835754223466,
        "alt_km": 598.2914007471854,
        "timestamp": "2025-12-21T14:40:47.567247+00:00",
        "meta_object_name": "LAPAN-TUBSAT",
        "meta_object_id": "2007-001A",
        "meta_epoch": "2025-12-21T06:23:41.529696",
        "meta_mean_motion": 14.85683073,
        "meta_eccentricity": 0.00133747,
        "meta_inclination": 98.1252,
        "meta_ra_of_asc_node": 345.5982,
        "meta_arg_of_pericenter": 49.0786,
        "meta_mean_anomaly": 311.1584,
        "meta_ephemeris_type": 0,
        "meta_classification_type": "U",
        "meta_norad_cat_id": 29709,
        "meta_element_set_no": 999,
        "meta_rev_at_epoch": 2473,
        "meta_bstar": 0.00011414988,
        "meta_mean_motion_dot": 9.34e-06,
        "meta_mean_motion_ddot": 0,
        "tle_line1": "1 29709U 07001A   25355.26645289  .00000934  00000+0  11415-3 0  9997",
        "tle_line2": "2 29709  98.1252 345.5982 0013374  49.0786 311.1584 14.85683073 24738"
      },
      "geometry": {
        "type": "Point",
        "coordinates": [
          -22.200835754223466,
          44.78298424569587
        ]
      }
    },
    {
      "type": "Feature",
      "properties": {
        "norad_id": 31113,
        "name": "HAIYANG-1B",
        "group": "resource",
        "lat": -14.20847853565267,
        "lon": -18.349957636817443,
        "alt_km": 784.2285355691556,
        "timestamp": "2025-12-21T14:40:47.567259+00:00",
        "meta_object_name": "HAIYANG-1B",
        "meta_object_id": "2007-010A",
        "meta_epoch": "2025-12-20T20:17:13.259040",
        "meta_mean_motion": 14.30967553,
        "meta_eccentricity": 0.0013866,
        "meta_inclination": 98.3321,
        "meta_ra_of_asc_node": 338.7888,
        "meta_arg_of_pericenter": 14.9776,
        "meta_mean_anomaly": 345.1816,
        "meta_ephemeris_type": 0,
        "meta_classification_type": "U",
        "meta_norad_cat_id": 31113,
        "meta_element_set_no": 999,
        "meta_rev_at_epoch": 97512,
        "meta_bstar": 4.2056e-05,
        "meta_mean_motion_dot": 6.9e-07,
        "meta_mean_motion_ddot": 0,
        "tle_line1": "1 31113U 07010A   25354.84529235  .00000069  00000+0  42056-4 0  9999",
        "tle_line2": "2 31113  98.3321 338.7888 0013866  14.9776 345.1816 14.30967553975125"
      },
      "geometry": {
        "type": "Point",
        "coordinates": [
          -18.349957636817443,
          -14.20847853565267
        ]
      }
    },
    {
      "type": "Feature",
      "properties": {
        "norad_id": 31598,
        "name": "COSMO-SKYMED 1",
        "group": "resource",
        "lat": -35.586794913267575,
        "lon": -173.2402694424404,
        "alt_km": 586.6189429260476,
        "timestamp": "2025-12-21T14:40:47.567269+00:00",
        "meta_object_name": "COSMO-SKYMED 1",
        "meta_object_id": "2007-023A",
        "meta_epoch": "2025-12-21T06:48:47.333088",
        "meta_mean_motion": 14.95827479,
        "meta_eccentricity": 0.00015399,
        "meta_inclination": 97.8838,
        "meta_ra_of_asc_node": 180.7393,
        "meta_arg_of_pericenter": 82.5032,
        "meta_mean_anomaly": 277.6364,
        "meta_ephemeris_type": 0,
        "meta_classification_type": "U",
        "meta_norad_cat_id": 31598,
        "meta_element_set_no": 999,
        "meta_rev_at_epoch": 318,
        "meta_bstar": 0.00026487183,
        "meta_mean_motion_dot": 2.898e-05,
        "meta_mean_motion_ddot": 0,
        "tle_line1": "1 31598U 07023A   25355.28388117  .00002898  00000+0  26487-3 0  9992",
        "tle_line2": "2 31598  97.8838 180.7393 0001539  82.5032 277.6364 14.95827479  3183"
      },
      "geometry": {
        "type": "Point",
        "coordinates": [
          -173.2402694424404,
          -35.586794913267575
        ]
      }
    },
    {
      "type": "Feature",
      "properties": {
        "norad_id": 31698,
        "name": "TERRASAR-X",
        "group": "resource",
        "lat": 4.245542190004483,
        "lon": 0.3065794613499929,
        "alt_km": 510.78026980867526,
        "timestamp": "2025-12-21T14:40:47.567280+00:00",
        "meta_object_name": "TERRASAR-X",
        "meta_object_id": "2007-026A",
        "meta_epoch": "2025-12-20T11:47:12.844032",
        "meta_mean_motion": 15.19153914,
        "meta_eccentricity": 0.0001874,
        "meta_inclination": 97.4453,
        "meta_ra_of_asc_node": 359.7585,
        "meta_arg_of_pericenter": 92.6145,
        "meta_mean_anomaly": 267.5304,
        "meta_ephemeris_type": 0,
        "meta_classification_type": "U",
        "meta_norad_cat_id": 31698,
        "meta_element_set_no": 999,
        "meta_rev_at_epoch": 2609,
        "meta_bstar": 3.1273e-05,
        "meta_mean_motion_dot": 5.9e-06,
        "meta_mean_motion_ddot": 0,
        "tle_line1": "1 31698U 07026A   25354.49112088  .00000590  00000+0  31273-4 0  9997",
        "tle_line2": "2 31698  97.4453 359.7585 0001874  92.6145 267.5304 15.19153914 26093"
      },
      "geometry": {
        "type": "Point",
        "coordinates": [
          0.3065794613499929,
          4.245542190004483
        ]
      }
    },
    {
      "type": "Feature",
      "properties": {
        "norad_id": 32060,
        "name": "WORLDVIEW-1 (WV-1)",
        "group": "resource",
        "lat": 1.4843690065454067,
        "lon": -66.84221038672581,
        "alt_km": 499.3531203952025,
        "timestamp": "2025-12-21T14:40:47.567290+00:00",
        "meta_object_name": "WORLDVIEW-1 (WV-1)",
        "meta_object_id": "2007-041A",
        "meta_epoch": "2025-12-21T06:01:11.878752",
        "meta_mean_motion": 15.23888711,
        "meta_eccentricity": 0.00034449,
        "meta_inclination": 97.3825,
        "meta_ra_of_asc_node": 112.6101,
        "meta_arg_of_pericenter": 8.3504,
        "meta_mean_anomaly": 351.779,
        "meta_ephemeris_type": 0,
        "meta_classification_type": "U",
        "meta_norad_cat_id": 32060,
        "meta_element_set_no": 999,
        "meta_rev_at_epoch": 1577,
        "meta_bstar": 0.00023323757,
        "meta_mean_motion_dot": 5.561e-05,
        "meta_mean_motion_ddot": 0,
        "tle_line1": "1 32060U 07041A   25355.25083193  .00005561  00000+0  23324-3 0  9997",
        "tle_line2": "2 32060  97.3825 112.6101 0003444   8.3504 351.7790 15.23888711 15770"
      },
      "geometry": {
        "type": "Point",
        "coordinates": [
          -66.84221038672581,
          1.4843690065454067
        ]
      }
    },
    {
      "type": "Feature",
      "properties": {
        "norad_id": 32289,
        "name": "YAOGAN-3",
        "group": "resource",
        "lat": -15.288810235522192,
        "lon": 24.31409072402013,
        "alt_km": 603.0345748439186,
        "timestamp": "2025-12-21T14:40:47.567301+00:00",
        "meta_object_name": "YAOGAN-3",
        "meta_object_id": "2007-055A",
        "meta_epoch": "2025-12-21T06:41:23.181792",
        "meta_mean_motion": 14.89893387,
        "meta_eccentricity": 0.00011186,
        "meta_inclination": 97.8354,
        "meta_ra_of_asc_node": 21.8269,
        "meta_arg_of_pericenter": 74.2004,
        "meta_mean_anomaly": 285.9336,
        "meta_ephemeris_type": 0,
        "meta_classification_type": "U",
        "meta_norad_cat_id": 32289,
        "meta_element_set_no": 999,
        "meta_rev_at_epoch": 97936,
        "meta_bstar": 0.00015244658,
        "meta_mean_motion_dot": 1.41e-05,
        "meta_mean_motion_ddot": 0,
        "tle_line1": "1 32289U 07055A   25355.27874053  .00001410  00000+0  15245-3 0  9992",
        "tle_line2": "2 32289  97.8354  21.8269 0001118  74.2004 285.9336 14.89893387979368"
      },
      "geometry": {
        "type": "Point",
        "coordinates": [
          24.31409072402013,
          -15.288810235522192
        ]
      }
    }
  ]
}